 
    Coasting Arc #2 (Orbit 2962)
    ---------------------------------------
 
    Vector Time (GMT): 2016/070/12:00:00.000
    Vector Time (MET): N/A
    Weight (LBS)     : 890369.9
 
              M50 Cartesian                         M50 Keplerian  
    -----------------------------------       --------------------------------
     X    =        1779058.39                 A    =         6779363.60  meter
     Y    =        4272938.18  meter          E    =           .0010566
     Z    =       -4963230.63                 I    =           51.56447
     XDOT =      -7330.927043                 Wp   =           72.97479
     YDOT =        556.431529  meter/sec      RA   =          189.07558  deg
     ZDOT =      -2149.476948                 TA   =          176.03678
                                              MA   =          176.02841
                                              Ha   =            220.562  n.mi
                                              Hp   =            215.585
 
              M50 Cartesian                         J2K Cartesian  
    -----------------------------------       --------------------------------
     X    =        5836805.73                 X    =         1755254.20
     Y    =       14018826.06  feet           Y    =         4292698.90  meter
     Z    =      -16283565.05                 Z    =        -4954646.97
     XDOT =     -24051.597910                 XDOT =       -7326.163178
     YDOT =       1825.562759  feet/sec       YDOT =         474.478519  meter/sec
     ZDOT =      -7052.089725                 ZDOT =       -2185.077053
 
              TDR Cartesian                         TDR Cartesian  
    -----------------------------------       --------------------------------
     X    =        2830664.01                 X    =          862786.39
     Y    =       14959061.57  feet           Y    =         4559521.97  meter
     Z    =      -16246971.85                 Z    =        -4952077.02
     XDOT =     -22755.306963                 XDOT =       -6935.817562
     YDOT =      -3518.464423  feet/sec       YDOT =       -1072.427956  meter/sec
     ZDOT =      -7206.663456                 ZDOT =       -2196.591022
  
  
    The mean element set is posted at the UTC for which position is
    just north of the next ascending node relative to the above
    vector time
 
 
    TWO LINE MEAN ELEMENT SET
  
    ISS
    1 25544U 98067A   16070.51992997  .00016717  00000-0  10270-3 0  9013
    2 25544  51.6432 190.0943 0001825 262.1542  97.9404 15.53986989 29633
  
  
    Satellite: ISS
    Catalog Number: 25544
    Epoch time:      16070.51992997   =   yrday.fracday
    Element set:     901
    Inclination:       51.6432  deg
    RA of node:       190.0943  deg
    Eccentricity:     .0001825     
    Arg of perigee:   262.1542  deg
    Mean anomaly:      97.9404  deg
    Mean motion:   15.53986989  rev/day
    Decay rate:    1.67170E-04  rev/day^2
    Epoch rev:            2963
    Checksum:              340
 
 
    Coasting Arc #3 (Orbit 2969)
    ---------------------------------------
 
    Vector Time (GMT): 2016/070/23:10:00.000
    Vector Time (MET): N/A
    Weight (LBS)     : 890369.9
 
              M50 Cartesian                         M50 Keplerian  
    -----------------------------------       --------------------------------
     X    =       -6255297.20                 A    =         6787293.07  meter
     Y    =        1149789.52  meter          E    =           .0004827
     Z    =       -2364638.50                 I    =           51.60381
     XDOT =      -2883.147147                 Wp   =           29.29826
     YDOT =      -4634.540866  meter/sec      RA   =          186.72060  deg
     ZDOT =       5382.188529                 TA   =          304.30086
                                              MA   =          304.34655
                                              Ha   =            220.556  n.mi
                                              Hp   =            215.472
 
              M50 Cartesian                         J2K Cartesian  
    -----------------------------------       --------------------------------
     X    =      -20522628.60                 X    =        -6256203.17
     Y    =        3772275.34  feet           Y    =         1079833.19  meter
     Z    =       -7758000.32                 Z    =        -2395027.42
     XDOT =      -9459.144184                 XDOT =       -2857.252531
     YDOT =     -15205.186568  feet/sec       YDOT =       -4666.636496  meter/sec
     ZDOT =      17658.098847                 ZDOT =        5368.246609
 
              TDR Cartesian                         TDR Cartesian  
    -----------------------------------       --------------------------------
     X    =       20210968.31                 X    =         6160303.14
     Y    =        4985848.87  feet           Y    =         1519686.74  meter
     Z    =       -7890056.13                 Z    =        -2404889.11
     XDOT =       2832.631571                 XDOT =         863.386103
     YDOT =      16321.836795  feet/sec       YDOT =        4974.895855  meter/sec
     ZDOT =      17598.306029                 ZDOT =        5363.963678
  
  
    The mean element set is posted at the UTC for which position is
    just north of the next ascending node relative to the above
    vector time
 
 
    TWO LINE MEAN ELEMENT SET
  
    ISS
    1 25544U 98067A   16070.97008272  .00016717  00000-0  10270-3 0  9028
    2 25544  51.6411 187.8542 0001780 283.7398  76.3556 15.53984359 29703
  
  
    Satellite: ISS
    Catalog Number: 25544
    Epoch time:      16070.97008272   =   yrday.fracday
    Element set:     902
    Inclination:       51.6411  deg
    RA of node:       187.8542  deg
    Eccentricity:     .0001780     
    Arg of perigee:   283.7398  deg
    Mean anomaly:      76.3556  deg
    Mean motion:   15.53984359  rev/day
    Decay rate:    1.67170E-04  rev/day^2
    Epoch rev:            2970
    Checksum:              335
 
 
    Coasting Arc #4 (Orbit 2985)
    ---------------------------------------
 
    Vector Time (GMT): 2016/071/23:10:00.000
    Vector Time (MET): N/A
    Weight (LBS)     : 890369.9
 
              M50 Cartesian                         M50 Keplerian  
    -----------------------------------       --------------------------------
     X    =        6730970.87                 A    =         6789385.82  meter
     Y    =        -387127.38  meter          E    =           .0011680
     Z    =         748417.54                 I    =           51.64303
     XDOT =        940.719366                 Wp   =          129.71273
     YDOT =       4742.007107  meter/sec      RA   =          181.74806  deg
     ZDOT =      -5953.113345                 TA   =           42.19909
                                              MA   =           42.10924
                                              Ha   =            220.573  n.mi
                                              Hp   =            215.417
 
              M50 Cartesian                         J2K Cartesian  
    -----------------------------------       --------------------------------
     X    =       22083237.75                 X    =         6731164.07
     Y    =       -1270102.95  feet           Y    =         -311856.00  meter
     Z    =        2455438.12                 Z    =          781115.40
     XDOT =       3086.349627                 XDOT =         916.540787
     YDOT =      15557.766099  feet/sec       YDOT =        4752.390809  meter/sec
     ZDOT =     -19531.211763                 ZDOT =       -5948.602980
 
              TDR Cartesian                         TDR Cartesian  
    -----------------------------------       --------------------------------
     X    =      -20768273.42                 X    =        -6330169.74
     Y    =       -7565976.91  feet           Y    =        -2306109.76  meter
     Z    =        2597410.21                 Z    =          791690.63
     XDOT =       2654.365767                 XDOT =         809.050686
     YDOT =     -14042.754487  feet/sec       YDOT =       -4280.231568  meter/sec
     ZDOT =     -19512.365024                 ZDOT =       -5947.368859
  
  
    The mean element set is posted at the UTC for which position is
    just north of the next ascending node relative to the above
    vector time
 
 
    TWO LINE MEAN ELEMENT SET
  
    ISS
    1 25544U 98067A   16071.99899175  .00016717  00000-0  10270-3 0  9032
    2 25544  51.6412 182.7265 0001756 288.1131  71.9831 15.54018082 29863
  
  
    Satellite: ISS
    Catalog Number: 25544
    Epoch time:      16071.99899175   =   yrday.fracday
    Element set:     903
    Inclination:       51.6412  deg
    RA of node:       182.7265  deg
    Eccentricity:     .0001756     
    Arg of perigee:   288.1131  deg
    Mean anomaly:      71.9831  deg
    Mean motion:   15.54018082  rev/day
    Decay rate:    1.67170E-04  rev/day^2
    Epoch rev:            2986
    Checksum:              329
 
 
    Coasting Arc #5 (Orbit 3001)
    ---------------------------------------
 
    Vector Time (GMT): 2016/072/23:10:00.000
    Vector Time (MET): N/A
    Weight (LBS)     : 890369.9
 
